[
    {
        "Altitude(m)": 622205.8692959661,
        "Argument of Periapsis(deg)": 0.0,
        "Eccentricity": 0.0,
        "Inclination(deg)": 60.0,
        "Latitude(deg)": -52.1624403975456,
        "Longitude(deg)": 2.7005455820987145,
        "Mean Anomaly(deg)": -114.5455,
        "RAAN(deg)": 235.0,
        "Satellite Name": "Test1 1049",
        "Satellite Number": 1049,
        "Semi-Major Axis(m)": 6980739.136638005,
        "Time(s)": 0
    },
    {
        "Altitude(m)": 622344.7752505959,
        "Argument of Periapsis(deg)": 0.00010418945913296404,
        "Eccentricity": 0.0,
        "Inclination(deg)": 60.0,
        "Latitude(deg)": -52.5200183833633,
        "Longitude(deg)": 3.481759984319624,
        "Mean Anomaly(deg)": -113.92539385453817,
        "RAAN(deg)": 234.99957995086027,
        "Satellite Name": "Test1 1049",
        "Satellite Number": 1049,
        "Semi-Major Axis(m)": 6980739.136638005,
        "Time(s)": 10
    },
    {
        "Altitude(m)": 622480.8375467429,
        "Argument of Periapsis(deg)": 0.0002083789182659281,
        "Eccentricity": 0.0,
        "Inclination(deg)": 60.0,
        "Latitude(deg)": -52.871759730951254,
        "Longitude(deg)": 4.276306508485909,
        "Mean Anomaly(deg)": -113.30528770907642,
        "RAAN(deg)": 234.99915990172047,
        "Satellite Name": "Test1 1049",
        "Satellite Number": 1049,
        "Semi-Major Axis(m)": 6980739.136638005,
        "Time(s)": 20
    },
    {
        "Altitude(m)": 622614.0029533289,
        "Argument of Periapsis(deg)": 0.00031256837739889213,
        "Eccentricity": 0.0,
        "Inclination(deg)": 60.0,
        "Latitude(deg)": -53.217496579079274,
        "Longitude(deg)": 5.0843461186531975,
        "Mean Anomaly(deg)": -112.68518156361452,
        "RAAN(deg)": 234.9987398525808,
        "Satellite Name": "Test1 1049",
        "Satellite Number": 1049,
        "Semi-Major Axis(m)": 6980739.136638005,
        "Time(s)": 30
    },
    {
        "Altitude(m)": 622744.2193495018,
        "Argument of Periapsis(deg)": 0.0004167578365318562,
        "Eccentricity": 0.0,
        "Inclination(deg)": 60.0,
        "Latitude(deg)": -53.557057659674,
        "Longitude(deg)": 5.90602815539038,
        "Mean Anomaly(deg)": -112.06507541815274,
        "RAAN(deg)": 234.99831980344103,
        "Satellite Name": "Test1 1049",
        "Satellite Number": 1049,
        "Semi-Major Axis(m)": 6980739.136638005,
        "Time(s)": 40
    },
    {
        "Altitude(m)": 622871.4357468926,
        "Argument of Periapsis(deg)": 0.0005209472956648203,
        "Eccentricity": 0.0,
        "Inclination(deg)": 60.0,
        "Latitude(deg)": -53.890268420586146,
        "Longitude(deg)": 6.741487939276115,
        "Mean Anomaly(deg)": -111.44496927269091,
        "RAAN(deg)": 234.99789975430124,
        "Satellite Name": "Test1 1049",
        "Satellite Number": 1049,
        "Semi-Major Axis(m)": 6980739.136638005,
        "Time(s)": 50
    },
    {
        "Altitude(m)": 622995.6023113495,
        "Argument of Periapsis(deg)": 0.0006251367547977843,
        "Eccentricity": 0.0,
        "Inclination(deg)": 60.0,
        "Latitude(deg)": -54.216951172340096,
        "Longitude(deg)": 7.590845823663065,
        "Mean Anomaly(deg)": -110.82486312722907,
        "RAAN(deg)": 234.9974797051615,
        "Satellite Name": "Test1 1049",
        "Satellite Number": 1049,
        "Semi-Major Axis(m)": 6980739.136638005,
        "Time(s)": 60
    },
    {
        "Altitude(m)": 623116.6703841866,
        "Argument of Periapsis(deg)": 0.0007293262139307483,
        "Eccentricity": 0.0,
        "Inclination(deg)": 60.0,
        "Latitude(deg)": -54.53692526048553,
        "Longitude(deg)": 8.454206188200589,
        "Mean Anomaly(deg)": -110.20475698176726,
        "RAAN(deg)": 234.99705965602183,
        "Satellite Name": "Test1 1049",
        "Satellite Number": 1049,
        "Semi-Major Axis(m)": 6980739.136638005,
        "Time(s)": 70
    },
    {
        "Altitude(m)": 623234.5925028829,
        "Argument of Periapsis(deg)": 0.0008335156730637124,
        "Eccentricity": 0.0,
        "Inclination(deg)": 60.0,
        "Latitude(deg)": -54.850007265126294,
        "Longitude(deg)": 9.331654865888543,
        "Mean Anomaly(deg)": -109.58465083630539,
        "RAAN(deg)": 234.99663960688204,
        "Satellite Name": "Test1 1049",
        "Satellite Number": 1049,
        "Semi-Major Axis(m)": 6980739.136638005,
        "Time(s)": 80
    },
    {
        "Altitude(m)": 623349.3224213157,
        "Argument of Periapsis(deg)": 0.0009377051321966765,
        "Eccentricity": 0.0,
        "Inclination(deg)": 60.0,
        "Latitude(deg)": -55.15601122912709,
        "Longitude(deg)": 10.223258036457052,
        "Mean Anomaly(deg)": -108.96454469084354,
        "RAAN(deg)": 234.99621955774228,
        "Satellite Name": "Test1 1049",
        "Satellite Number": 1049,
        "Semi-Major Axis(m)": 6980739.136638005,
        "Time(s)": 90
    },
    {
        "Altitude(m)": 623460.8151293861,
        "Argument of Periapsis(deg)": 0.0010418945913296407,
        "Eccentricity": 0.0,
        "Inclination(deg)": 60.0,
        "Latitude(deg)": -55.45474891640711,
        "Longitude(deg)": 11.129061081757156,
        "Mean Anomaly(deg)": -108.3444385453817,
        "RAAN(deg)": 234.99579950860254,
        "Satellite Name": "Test1 1049",
        "Satellite Number": 1049,
        "Semi-Major Axis(m)": 6980739.136638005,
        "Time(s)": 100
    },
    {
        "Altitude(m)": 623569.0268721967,
        "Argument of Periapsis(deg)": 0.0011460840504626045,
        "Eccentricity": 0.0,
        "Inclination(deg)": 60.0,
        "Latitude(deg)": -55.74603010159801,
        "Longitude(deg)": 12.049085900443762,
        "Mean Anomaly(deg)": -107.7243323999199,
        "RAAN(deg)": 234.9953794594628,
        "Satellite Name": "Test1 1049",
        "Satellite Number": 1049,
        "Semi-Major Axis(m)": 6980739.136638005,
        "Time(s)": 110
    },
    {
        "Altitude(m)": 623673.9151685893,
        "Argument of Periapsis(deg)": 0.0012502735095955685,
        "Eccentricity": 0.0,
        "Inclination(deg)": 60.0,
        "Latitude(deg)": -56.02966289216429,
        "Longitude(deg)": 12.983329719528067,
        "Mean Anomaly(deg)": -107.10422625445803,
        "RAAN(deg)": 234.99495941032308,
        "Satellite Name": "Test1 1049",
        "Satellite Number": 1049,
        "Semi-Major Axis(m)": 6980739.136638005,
        "Time(s)": 120
    },
    {
        "Altitude(m)": 623775.4388292235,
        "Argument of Periapsis(deg)": 0.0013544629687285324,
        "Eccentricity": 0.0,
        "Inclination(deg)": 60.0,
        "Latitude(deg)": -56.305454083885564,
        "Longitude(deg)": 13.931763903483294,
        "Mean Anomaly(deg)": -106.48412010899618,
        "RAAN(deg)": 234.9945393611833,
        "Satellite Name": "Test1 1049",
        "Satellite Number": 1049,
        "Semi-Major Axis(m)": 6980739.136638005,
        "Time(s)": 130
    },
    {
        "Altitude(m)": 623873.5579740147,
        "Argument of Periapsis(deg)": 0.0014586524278614966,
        "Eccentricity": 0.0,
        "Inclination(deg)": 60.0,
        "Latitude(deg)": -56.573209550347535,
        "Longitude(deg)": 14.894331263333733,
        "Mean Anomaly(deg)": -105.86401396353432,
        "RAAN(deg)": 234.99411931204358,
        "Satellite Name": "Test1 1049",
        "Satellite Number": 1049,
        "Semi-Major Axis(m)": 6980739.136638005,
        "Time(s)": 140
    },
    {
        "Altitude(m)": 623968.2340490794,
        "Argument of Periapsis(deg)": 0.0015628418869944607,
        "Eccentricity": 0.0,
        "Inclination(deg)": 60.0,
        "Latitude(deg)": -56.832734666787054,
        "Longitude(deg)": 15.87094490851086,
        "Mean Anomaly(deg)": -105.24390781807253,
        "RAAN(deg)": 234.99369926290385,
        "Satellite Name": "Test1 1049",
        "Satellite Number": 1049,
        "Semi-Major Axis(m)": 6980739.136638005,
        "Time(s)": 150
    },
    {
        "Altitude(m)": 624059.4298430482,
        "Argument of Periapsis(deg)": 0.0016670313461274247,
        "Eccentricity": 0.0,
        "Inclination(deg)": 60.0,
        "Latitude(deg)": -57.08383476830663,
        "Longitude(deg)": 16.86148714731924,
        "Mean Anomaly(deg)": -104.62380167261067,
        "RAAN(deg)": 234.9932792137641,
        "Satellite Name": "Test1 1049",
        "Satellite Number": 1049,
        "Semi-Major Axis(m)": 6980739.136638005,
        "Time(s)": 160
    },
    {
        "Altitude(m)": 624147.1095028386,
        "Argument of Periapsis(deg)": 0.0017712208052603888,
        "Eccentricity": 0.0,
        "Inclination(deg)": 60.0,
        "Latitude(deg)": -57.326315642090314,
        "Longitude(deg)": 17.86580694343037,
        "Mean Anomaly(deg)": -104.00369552714892,
        "RAAN(deg)": 234.99285916462435,
        "Satellite Name": "Test1 1049",
        "Satellite Number": 1049,
        "Semi-Major Axis(m)": 6980739.136638005,
        "Time(s)": 170
    },
    {
        "Altitude(m)": 624231.2385488271,
        "Argument of Periapsis(deg)": 0.001875410264393353,
        "Eccentricity": 0.0,
        "Inclination(deg)": 60.0,
        "Latitude(deg)": -57.55998405282098,
        "Longitude(deg)": 18.883718975862013,
        "Mean Anomaly(deg)": -103.38358938168707,
        "RAAN(deg)": 234.99243911548461,
        "Satellite Name": "Test1 1049",
        "Satellite Number": 1049,
        "Semi-Major Axis(m)": 6980739.136638005,
        "Time(s)": 180
    },
    {
        "Altitude(m)": 624311.7838894557,
        "Argument of Periapsis(deg)": 0.0019795997235263173,
        "Eccentricity": 0.0,
        "Inclination(deg)": 60.0,
        "Latitude(deg)": -57.784648300041205,
        "Longitude(deg)": 19.915002812486282,
        "Mean Anomaly(deg)": -102.76348323622527,
        "RAAN(deg)": 234.99201906634488,
        "Satellite Name": "Test1 1049",
        "Satellite Number": 1049,
        "Semi-Major Axis(m)": 6980739.136638005,
        "Time(s)": 190
    }
]